[{
    "name": "Ram",
    "id": 112,
    "street": "123 king st",
    "building": 123,
    "zip": 22047,
    "state": "VA",
    "city": "Fairfax",
    "orgType": "User"
  },
  {
    "name": "Ram",
    "id": 122,
    "street": "123 king st",
    "building": 123,
    "zip": 22047,
    "state": "VA",
    "city": "Fairfax",
    "orgType": "User"
  },
  {
    "name": "Ram",
    "id": 1172,
    "street": "123 king st",
    "building": 123,
    "zip": 22047,
    "state": "VA",
    "city": "Fairfax",
    "orgType": "User"
  },
  {
    "name": "Ram",
    "id": 11242,
    "street": "123 king st",
    "building": 123,
    "zip": 22047,
    "state": "VA",
    "city": "Fairfax",
    "orgType": "User"
  },
  {
    "name": "Ram",
    "id": 11922,
    "street": "123 king st",
    "building": 123,
    "zip": 22047,
    "state": "VA",
    "city": "Fairfax",
    "orgType": "User"
  },
  {
    "name": "Ram",
    "id": 11222,
    "street": "123 king st",
    "building": 123,
    "zip": 22047,
    "state": "VA",
    "city": "Fairfax",
    "orgType": "User"
  },
  {
    "name": "Ram",
    "id": 11202,
    "street": "123 king st",
    "building": 123,
    "zip": 22047,
    "state": "VA",
    "city": "Fairfax",
    "orgType": "User"
  },
  {
    "name": "Ram",
    "id": 11022,
    "street": "123 king st",
    "building": 123,
    "zip": 22047,
    "state": "VA",
    "city": "Fairfax",
    "orgType": "User"
  },
  {
    "name": "Ram",
    "id": 11212,
    "street": "123 king st",
    "building": 123,
    "zip": 22047,
    "state": "VA",
    "city": "Fairfax",
    "orgType": "User"
  },
  {
    "name": "Ram",
    "id": 112972,
    "street": "123 king st",
    "building": 123,
    "zip": 22047,
    "state": "VA",
    "city": "Fairfax",
    "orgType": "User"
  }
]
